NORAD_CAT_ID,OBJECT_NAME,OBJECT_TYPE,EPOCH,MEAN_MOTION,ECCENTRICITY,INCLINATION,RA_OF_ASC_NODE,ARG_OF_PERICENTER,MEAN_ANOMALY,BSTAR,MEAN_MOTION_DOT,MEAN_MOTION_DDOT,TLE_LINE0,TLE_LINE1,TLE_LINE2,SEMIMAJOR_AXIS,PERIOD,APOGEE,PERIGEE,DECAYED
51995.0,STARLINK-3636,PAYLOAD,2023-02-28 01:30:42,15.08861264,0.0001993,53.2151,302.4715,79.6187,280.503,0.00044356,6.782e-05,0.0,0 STARLINK-3636,1 51995U 22025AR  23059.06299553  .00006782  00000-0  44356-3 0  9996,2 51995  53.2151 302.4715 0001993  79.6187 280.5030 15.08861264 55515,6917.815,95.436,541.059,538.302,0.0
51995.0,STARLINK-3636,PAYLOAD,2023-02-28 22:10:45,15.08804444,0.000111,53.2169,298.6064,98.0956,262.0162,-0.00036397,-6.07e-05,0.0,0 STARLINK-3636,1 51995U 22025AR  23059.92413754 -.00006070  00000-0 -36397-3 0  9990,2 51995  53.2169 298.6064 0001110  98.0956 262.0162 15.08804444 54121,6917.989,95.44,540.622,539.086,0.0
51995.0,STARLINK-3636,PAYLOAD,2023-03-01 01:21:32,15.08803552,0.000109,53.2171,298.0115,98.3589,261.7527,-0.00017147,-3.013e-05,0.0,0 STARLINK-3636,1 51995U 22025AR  23060.05662179 -.00003013  00000-0 -17147-3 0  9999,2 51995  53.2171 298.0115 0001090  98.3589 261.7527 15.08803552 55667,6917.992,95.44,540.611,539.103,0.0
51995.0,STARLINK-3636,PAYLOAD,2023-03-01 22:01:33,15.08831349,0.0001009,53.2162,294.1472,94.4258,265.685,0.00090959,0.00014214,0.0,0 STARLINK-3636,1 51995U 22025AR  23060.91775397  .00014214  00000-0  90959-3 0  9996,2 51995  53.2162 294.1472 0001009  94.4258 265.6850 15.08831349 54273,6917.907,95.438,540.47,539.074,0.0
51995.0,STARLINK-3636,PAYLOAD,2023-03-02 01:12:20,15.08840657,0.0001029,53.2161,293.5523,92.9448,267.1662,0.0011029,0.00017309,0.0,0 STARLINK-3636,1 51995U 22025AR  23061.05023402  .00017309  00000-0  11029-2 0  9993,2 51995  53.2161 293.5523 0001029  92.9448 267.1662 15.08840657 55819,6917.878,95.438,540.455,539.032,0.0
51995.0,STARLINK-3636,PAYLOAD,2023-03-02 15:30:47,15.08862442,0.0001043,53.2157,290.8757,92.9885,267.1226,0.0010396,0.00016306,0.0,0 STARLINK-3636,1 51995U 22025AR  23061.64638852  .00016306  00000-0  10396-2 0  9991,2 51995  53.2157 290.8757 0001043  92.9885 267.1226 15.08862442 54387,6917.812,95.436,540.398,538.955,0.0
51995.0,STARLINK-3636,PAYLOAD,2023-03-03 01:03:05,15.08882144,0.0001018,53.2157,289.0915,93.0334,267.0774,0.0012985,0.00020462,0.0,0 STARLINK-3636,1 51995U 22025AR  23062.04381912  .00020462  00000-0  12985-2 0  9992,2 51995  53.2157 289.0915 0001018  93.0334 267.0774 15.08882144 55969,6917.752,95.435,540.321,538.912,0.0
51995.0,STARLINK-3636,PAYLOAD,2023-03-03 15:21:33,15.08865927,0.0001201,53.2158,286.415,91.1433,268.9697,0.0010442,0.00016381,0.0,0 STARLINK-3636,1 51995U 22025AR  23062.63997634  .00016381  00000-0  10442-2 0  9992,2 51995  53.2158 286.4150 0001201  91.1433 268.9697 15.08865927 56050,6917.801,95.436,540.497,538.835,0.0
51995.0,STARLINK-3636,PAYLOAD,2023-03-03 21:43:06,15.08872858,8.21e-05,53.2157,285.2259,95.8729,264.2357,0.00085812,0.00013408,0.0,0 STARLINK-3636,1 51995U 22025AR  23062.90493082  .00013408  00000-0  85812-3 0  9991,2 51995  53.2157 285.2259 0000821  95.8729 264.2357 15.08872858 54570,6917.78,95.435,540.213,539.077,0.0
51995.0,STARLINK-3636,PAYLOAD,2023-03-04 13:36:57,15.088515,0.0001574,53.2153,282.2512,68.698,291.418,0.00089987,0.00014067,0.0,0 STARLINK-3636,1 51995U 22025AR  23063.56733540  .00014067  00000-0  89987-3 0  9999,2 51995  53.2153 282.2512 0001574  68.6980 291.4180 15.08851500 54676,6917.845,95.437,540.799,538.621,0.0
51995.0,STARLINK-3636,PAYLOAD,2023-03-04 21:33:53,15.0883525,7.77e-05,53.216,280.7647,18.2111,341.8909,0.00083464,0.00013019,0.0,0 STARLINK-3636,1 51995U 22025AR  23063.89853805  .00013019  00000-0  83464-3 0  9992,2 51995  53.2160 280.7647 0000777  18.2111 341.8909 15.08835250 54726,6917.895,95.438,540.297,539.222,0.0
51995.0,STARLINK-3636,PAYLOAD,2023-03-05 13:27:45,15.08837408,9.22e-05,53.2165,277.7934,73.8858,286.2235,0.00054246,8.355e-05,0.0,0 STARLINK-3636,1 51995U 22025AR  23064.56094179  .00008355  00000-0  54246-3 0  9991,2 51995  53.2165 277.7934 0000922  73.8858 286.2235 15.08837408 54825,6917.888,95.438,540.391,539.115,0.0
51995.0,STARLINK-3636,PAYLOAD,2023-03-05 19:49:17,15.08843098,9.3e-05,53.2164,276.6044,77.8672,282.2424,0.00050724,7.795e-05,0.0,0 STARLINK-3636,1 51995U 22025AR  23064.82590062  .00007795  00000-0  50724-3 0  9996,2 51995  53.2164 276.6044 0000930  77.8672 282.2424 15.08843098 56382,6917.871,95.437,540.379,539.093,0.0
51995.0,STARLINK-3636,PAYLOAD,2023-03-05 21:24:40,15.08847381,9.23e-05,53.2167,276.307,72.6264,287.4829,0.00062272,9.639e-05,0.0,0 STARLINK-3636,1 51995U 22025AR  23064.89213990  .00009639  00000-0  62272-3 0  9995,2 51995  53.2167 276.3070 0000923  72.6264 287.4829 15.08847381 54870,6917.858,95.437,540.361,539.084,0.0
51995.0,STARLINK-3636,PAYLOAD,2023-03-06 00:35:27,15.0885486,9.34e-05,53.2155,275.7108,69.8873,290.222,0.00087175,0.00013619,0.0,0 STARLINK-3636,1 51995U 22025AR  23065.02461834  .00013619  00000-0  87175-3 0  9995,2 51995  53.2155 275.7108 0000934  69.8873 290.2220 15.08854860 56417,6917.835,95.437,540.346,539.054,0.0
51995.0,STARLINK-3636,PAYLOAD,2023-03-07 00:26:13,15.08846283,7.19e-05,53.2148,271.2464,130.7651,229.3403,0.00016684,2.369e-05,0.0,0 STARLINK-3636,1 51995U 22025AR  23066.01821520  .00002369  00000-0  16684-3 0  9994,2 51995  53.2148 271.2464 0000719 130.7651 229.3403 15.08846283 56560,6917.861,95.437,540.224,539.229,0.0
51995.0,STARLINK-3636,PAYLOAD,2023-03-07 19:30:51,15.08847329,0.0001122,53.2118,267.6807,80.275,279.8369,0.00017297,2.467e-05,0.0,0 STARLINK-3636,1 51995U 22025AR  23066.81309820  .00002467  00000-0  17297-3 0  9996,2 51995  53.2118 267.6807 0001122  80.2750 279.8369 15.08847329 56681,6917.858,95.437,540.499,538.947,0.0
51995.0,STARLINK-3636,PAYLOAD,2023-03-08 19:21:39,15.08840046,0.0001582,53.2114,263.2188,82.6018,277.5154,0.00017297,2.466e-05,0.0,0 STARLINK-3636,1 51995U 22025AR  23067.80670423  .00002466  00000-0  17297-3 0  9995,2 51995  53.2114 263.2188 0001582  82.6018 277.5154 15.08840046 56837,6917.88,95.438,540.84,538.651,0.0
51995.0,STARLINK-3636,PAYLOAD,2023-03-09 19:12:25,15.08854001,0.0001179,53.2138,258.7598,74.8669,285.2453,0.00038588,5.861e-05,0.0,0 STARLINK-3636,1 51995U 22025AR  23068.80029840  .00005861  00000-0  38588-3 0  9995,2 51995  53.2138 258.7598 0001179  74.8669 285.2453 15.08854001 55466,6917.838,95.437,540.518,538.887,0.0
51995.0,STARLINK-3636,PAYLOAD,2023-03-10 19:03:13,15.088376,0.0001092,53.2156,254.2979,79.0089,281.1026,1.4218e-05,-6.2e-07,0.0,0 STARLINK-3636,1 51995U 22025AR  23069.79390524 -.00000062  00000-0  14218-4 0  9998,2 51995  53.2156 254.2979 0001092  79.0089 281.1026 15.08837600 57130,6917.888,95.438,540.508,538.997,0.0
51995.0,STARLINK-3636,PAYLOAD,2023-03-11 12:32:27,15.08837341,9.67e-05,53.2154,251.0262,75.9077,284.2023,-6.7238e-05,-1.358e-05,0.0,0 STARLINK-3636,1 51995U 22025AR  23070.52254613 -.00001358  00000-0 -67238-4 0  9999,2 51995  53.2154 251.0262 0000967  75.9077 284.2023 15.08837341 55726,6917.889,95.438,540.422,539.085,0.0
51995.0,STARLINK-3636,PAYLOAD,2023-03-11 22:04:46,15.0885146,0.0001003,53.2162,249.243,88.2222,271.8885,0.0001312,1.802e-05,0.0,0 STARLINK-3636,1 51995U 22025AR  23070.91997825  .00001802  00000-0  13120-3 0  9993,2 51995  53.2162 249.2430 0001003  88.2222 271.8885 15.08851460 55784,6917.845,95.437,540.404,539.017,0.0
51995.0,STARLINK-3636,PAYLOAD,2023-03-12 12:23:15,15.08834693,0.0001128,53.2161,246.5652,86.8221,273.29,9.1057e-05,1.161e-05,0.0,0 STARLINK-3636,1 51995U 22025AR  23071.51614977  .00001161  00000-0  91057-4 0  9998,2 51995  53.2161 246.5652 0001128  86.8221 273.2900 15.08834693 57392,6917.897,95.438,540.542,538.981,0.0
51995.0,STARLINK-3636,PAYLOAD,2023-03-12 21:55:33,15.08840682,0.0001144,53.2161,244.781,85.7655,274.3468,0.00014723,2.056e-05,0.0,0 STARLINK-3636,1 51995U 22025AR  23071.91358745  .00002056  00000-0  14723-3 0  9998,2 51995  53.2161 244.7810 0001144  85.7655 274.3468 15.08840682 55939,6917.878,95.438,540.535,538.952,0.0
51995.0,STARLINK-3636,PAYLOAD,2023-03-13 10:38:39,15.08829975,0.0001368,53.2162,242.4015,97.3493,262.7655,1.4951e-05,-5e-07,0.0,0 STARLINK-3636,1 51995U 22025AR  23072.44351633 -.00000050  00000-0  14951-4 0  9993,2 51995  53.2162 242.4015 0001368  97.3493 262.7655 15.08829975 57538,6917.911,95.438,540.722,538.83,0.0
51995.0,STARLINK-3636,PAYLOAD,2023-03-13 12:14:02,15.08834759,0.0001167,53.2159,242.1058,93.6699,266.4426,-6.3494e-05,-1.298e-05,0.0,0 STARLINK-3636,1 51995U 22025AR  23072.50975241 -.00001298  00000-0 -63494-4 0  9999,2 51995  53.2159 242.1058 0001167  93.6699 266.4426 15.08834759 56028,6917.896,95.438,540.569,538.954,0.0
51995.0,STARLINK-3636,PAYLOAD,2023-03-13 20:10:58,15.08841622,0.0001312,53.216,240.6187,91.8573,268.257,6.1549e-05,6.92e-06,0.0,0 STARLINK-3636,1 51995U 22025AR  23072.84095023  .00000692  00000-0  61549-4 0  9991,2 51995  53.2160 240.6187 0001312  91.8573 268.2570 15.08841622 56071,6917.875,95.437,540.648,538.833,0.0
51995.0,STARLINK-3636,PAYLOAD,2023-03-14 12:04:49,15.08847238,0.0001306,53.2142,237.6449,91.5307,268.5835,0.00029856,4.468e-05,0.0,0 STARLINK-3636,1 51995U 22025AR  23073.50335002  .00004468  00000-0  29856-3 0  9998,2 51995  53.2142 237.6449 0001306  91.5307 268.5835 15.08847238 56170,6917.858,95.437,540.627,538.82,0.0
51995.0,STARLINK-3636,PAYLOAD,2023-03-14 20:01:44,15.08859446,0.0001452,53.2143,236.1578,92.878,267.2379,0.00048266,7.406e-05,0.0,0 STARLINK-3636,1 51995U 22025AR  23073.83454448  .00007406  00000-0  48266-3 0  9991,2 51995  53.2143 236.1578 0001452  92.8780 267.2379 15.08859446 57746,6917.821,95.436,540.69,538.681,0.0
51995.0,STARLINK-3636,PAYLOAD,2023-03-15 03:58:40,15.08850268,0.0002166,53.2146,234.6722,85.2515,274.8725,0.00032864,4.947e-05,0.0,0 STARLINK-3636,1 51995U 22025AR  23074.16574804  .00004947  00000-0  32864-3 0  9991,2 51995  53.2146 234.6722 0002166  85.2515 274.8725 15.08850268 57795,6917.849,95.437,541.212,538.216,0.0
